NORAD_CAT_ID,OBJECT_NAME,OBJECT_TYPE,EPOCH,MEAN_MOTION,ECCENTRICITY,INCLINATION,RA_OF_ASC_NODE,ARG_OF_PERICENTER,MEAN_ANOMALY,BSTAR,MEAN_MOTION_DOT,MEAN_MOTION_DDOT,TLE_LINE0,TLE_LINE1,TLE_LINE2,SEMIMAJOR_AXIS,PERIOD,APOGEE,PERIGEE,DECAYED
53268.0,STARLINK-4109,PAYLOAD,2024-07-15 22:18:38,15.08841645,0.0001199,53.2184,15.5286,88.6187,271.4943,0.00013057,1.791e-05,0.0,0 STARLINK-4109,1 53268U 22086AC  24197.92961604  .00001791  00000-0  13057-3 0  9999,2 53268  53.2184  15.5286 0001199  88.6187 271.4943 15.08841645110222,6917.875,95.437,540.57,538.911,0.0
53268.0,STARLINK-4109,PAYLOAD,2024-07-16 04:40:11,15.08848726,0.0001216,53.2184,14.3397,93.3357,266.7774,0.00025947,3.845e-05,0.0,0 STARLINK-4109,1 53268U 22086AC  24198.19457347  .00003845  00000-0  25947-3 0  9996,2 53268  53.2184  14.3397 0001216  93.3357 266.7774 15.08848726110084,6917.854,95.437,540.56,538.878,0.0
53268.0,STARLINK-4109,PAYLOAD,2024-07-16 18:58:39,15.08836654,0.0001266,53.2186,11.6639,99.1414,260.9722,5.733e-05,6.25e-06,0.0,0 STARLINK-4109,1 53268U 22086AC  24198.79074006  .00000625  00000-0  57330-4 0  9994,2 53268  53.2186  11.6639 0001266  99.1414 260.9722 15.08836654110174,6917.891,95.438,540.631,538.88,0.0
53268.0,STARLINK-4109,PAYLOAD,2024-07-17 18:49:27,15.08837856,0.0001158,53.2178,7.2019,71.0661,289.0457,3.7227e-05,3.05e-06,0.0,0 STARLINK-4109,1 53268U 22086AC  24199.78434261  .00000305  00000-0  37227-4 0  9995,2 53268  53.2178   7.2019 0001158  71.0661 289.0457 15.08837856110500,6917.887,95.438,540.553,538.951,0.0
53268.0,STARLINK-4109,PAYLOAD,2024-07-18 04:21:45,15.08843424,0.0001064,53.2174,5.418,77.8624,282.2487,0.00010386,1.366e-05,0.0,0 STARLINK-4109,1 53268U 22086AC  24200.18177964  .00001366  00000-0  10386-3 0  9990,2 53268  53.2174   5.4180 0001064  77.8624 282.2487 15.08843424110386,6917.87,95.437,540.471,538.999,0.0
53268.0,STARLINK-4109,PAYLOAD,2024-07-18 10:43:19,15.08835544,0.000168,53.2182,4.2346,81.3012,278.817,0.00010011,1.305e-05,0.0,0 STARLINK-4109,1 53268U 22086AC  24200.44674958  .00001305  00000-0  10011-3 0  9992,2 53268  53.2182   4.2346 0001680  81.3012 278.8170 15.08835544110420,6917.894,95.438,540.921,538.597,0.0
53268.0,STARLINK-4109,PAYLOAD,2024-07-18 18:40:14,15.08842927,0.0001083,53.2175,2.7403,81.1615,278.9499,0.00011415,1.529e-05,0.0,0 STARLINK-4109,1 53268U 22086AC  24200.77794366  .00001529  00000-0  11415-3 0  9991,2 53268  53.2175   2.7403 0001083  81.1615 278.9499 15.08842927110656,6917.871,95.437,540.486,538.987,0.0
53268.0,STARLINK-4109,PAYLOAD,2024-07-19 10:34:05,15.088396,9.6e-05,53.2169,359.7673,99.1442,260.9659,0.00014983,2.098e-05,0.0,0 STARLINK-4109,1 53268U 22086AC  24201.44034654  .00002098  00000-0  14983-3 0  9998,2 53268  53.2169 359.7673 0000960  99.1442 260.9659 15.08839600110577,6917.882,95.438,540.411,539.082,0.0
53268.0,STARLINK-4109,PAYLOAD,2024-07-19 16:55:38,15.08841287,0.0001016,53.2168,358.5778,102.3008,257.8097,0.00016766,2.382e-05,0.0,0 STARLINK-4109,1 53268U 22086AC  24201.70530549  .00002382  00000-0  16766-3 0  9998,2 53268  53.2168 358.5778 0001016 102.3008 257.8097 15.08841287110796,6917.876,95.437,540.444,539.039,0.0
53268.0,STARLINK-4109,PAYLOAD,2024-07-20 04:03:19,15.0885314,0.0001137,53.2182,356.4963,90.5498,269.5624,0.00027261,4.055e-05,0.0,0 STARLINK-4109,1 53268U 22086AC  24202.16897892  .00004055  00000-0  27261-3 0  9997,2 53268  53.2182 356.4963 0001137  90.5498 269.5624 15.08853140110685,6917.84,95.437,540.492,538.919,0.0
53268.0,STARLINK-4109,PAYLOAD,2024-07-20 13:35:39,15.0882906,0.0001096,53.2159,354.7147,86.4199,273.6919,5.7138e-05,6.21e-06,0.0,0 STARLINK-4109,1 53268U 22086AC  24202.56643238  .00000621  00000-0  57138-4 0  9996,2 53268  53.2159 354.7147 0001096  86.4199 273.6919 15.08829060110744,6917.914,95.438,540.537,539.021,0.0
53268.0,STARLINK-4109,PAYLOAD,2024-07-20 16:46:25,15.08835857,0.0001244,53.2158,354.1191,99.0698,261.0435,0.00013971,1.936e-05,0.0,0 STARLINK-4109,1 53268U 22086AC  24202.69890942  .00001936  00000-0  13971-3 0  9992,2 53268  53.2158 354.1191 0001244  99.0698 261.0435 15.08835857110942,6917.893,95.438,540.619,538.897,0.0
53268.0,STARLINK-4109,PAYLOAD,2024-07-21 02:18:43,15.08858406,0.000103,53.217,352.3344,94.0481,266.0629,0.00030382,4.553e-05,0.0,0 STARLINK-4109,1 53268U 22086AC  24203.09633660  .00004553  00000-0  30382-3 0  9992,2 53268  53.2170 352.3344 0001030  94.0481 266.0629 15.08858406110826,6917.824,95.436,540.402,538.977,0.0
53268.0,STARLINK-4109,PAYLOAD,2024-07-21 13:26:26,15.08834536,0.0001437,53.2189,350.2511,105.0974,255.0178,-7.0862e-05,-1.415e-05,0.0,0 STARLINK-4109,1 53268U 22086AC  24203.56002866 -.00001415  00000-0 -70862-4 0  9996,2 53268  53.2189 350.2511 0001437 105.0974 255.0178 15.08834536110892,6917.897,95.438,540.756,538.768,0.0
53268.0,STARLINK-4109,PAYLOAD,2024-07-21 15:01:49,15.08836955,0.0001554,53.219,349.9541,105.0952,255.0212,-2.967e-05,-7.6e-06,0.0,0 STARLINK-4109,1 53268U 22086AC  24203.62626789 -.00000760  00000-0 -29670-4 0  9992,2 53268  53.2190 349.9541 0001554 105.0952 255.0212 15.08836955111086,6917.89,95.438,540.83,538.68,0.0
53268.0,STARLINK-4109,PAYLOAD,2024-07-21 16:37:12,15.08846591,0.0001289,53.2185,349.6564,95.0752,265.0387,0.00012963,1.776e-05,0.0,0 STARLINK-4109,1 53268U 22086AC  24203.69250411  .00001776  00000-0  12963-3 0  9996,2 53268  53.2185 349.6564 0001289  95.0752 265.0387 15.08846591110915,6917.86,95.437,540.617,538.834,0.0
53268.0,STARLINK-4109,PAYLOAD,2024-07-23 17:54:10,15.08837881,0.0001272,53.2185,340.4422,89.4362,270.6776,6.2893e-05,7.13e-06,0.0,0 STARLINK-4109,1 53268U 22086AC  24205.74595221  .00000713  00000-0  62893-4 0  9993,2 53268  53.2185 340.4422 0001272  89.4362 270.6776 15.08837881111224,6917.887,95.438,540.632,538.872,0.0
53268.0,STARLINK-4109,PAYLOAD,2024-07-24 17:44:57,15.08839722,0.0001264,53.218,335.9807,83.6369,276.4767,8.4462e-05,1.057e-05,0.0,0 STARLINK-4109,1 53268U 22086AC  24206.73955373  .00001057  00000-0  84462-4 0  9999,2 53268  53.2180 335.9807 0001264  83.6369 276.4767 15.08839722111555,6917.881,95.438,540.621,538.872,0.0
53268.0,STARLINK-4109,PAYLOAD,2024-07-25 08:03:25,15.08838027,0.0001218,53.2181,333.3048,83.3063,276.8067,7.388e-05,8.88e-06,0.0,0 STARLINK-4109,1 53268U 22086AC  24207.33571610  .00000888  00000-0  73880-4 0  9997,2 53268  53.2181 333.3048 0001218  83.3063 276.8067 15.08838027111466,6917.886,95.438,540.594,538.909,0.0
53268.0,STARLINK-4109,PAYLOAD,2024-07-26 07:54:13,15.08835079,0.0002366,53.21,328.841,92.1589,267.9674,7.9013e-05,9.69e-06,0.0,0 STARLINK-4109,1 53268U 22086AC  24208.32932350  .00000969  00000-0  79013-4 0  9993,2 53268  53.2100 328.8410 0002366  92.1589 267.9674 15.08835079111611,6917.895,95.438,541.397,538.124,0.0
53268.0,STARLINK-4109,PAYLOAD,2024-07-26 15:51:09,15.08821187,0.0001729,53.2141,327.357,89.3937,270.7253,-0.0001604,-2.839e-05,0.0,0 STARLINK-4109,1 53268U 22086AC  24208.66053012 -.00002839  00000-0 -16040-3 0  9999,2 53268  53.2141 327.3570 0001729  89.3937 270.7253 15.08821187111669,6917.938,95.439,540.999,538.607,0.0
53268.0,STARLINK-4109,PAYLOAD,2024-07-27 18:52:42,15.08843861,0.0001764,53.2178,322.305,73.4105,286.7081,0.00022528,3.299e-05,0.0,0 STARLINK-4109,1 53268U 22086AC  24209.78660482  .00003299  00000-0  22528-3 0  9995,2 53268  53.2178 322.3050 0001764  73.4105 286.7081 15.08843861112016,6917.869,95.437,540.954,538.513,0.0
53268.0,STARLINK-4109,PAYLOAD,2024-07-28 01:14:15,15.08832869,0.0001529,53.2191,321.112,87.5668,272.5499,0.00088232,0.00013779,0.0,0 STARLINK-4109,1 53268U 22086AC  24210.05156891  .00013779  00000-0  88232-3 0  9999,2 53268  53.2191 321.1120 0001529  87.5668 272.5499 15.08832869111870,6917.902,95.438,540.825,538.709,0.0
53268.0,STARLINK-4109,PAYLOAD,2024-07-28 17:08:06,15.08850735,0.0001529,53.2182,318.1363,91.5754,268.5414,0.000263,3.901e-05,0.0,0 STARLINK-4109,1 53268U 22086AC  24210.71396107  .00003901  00000-0  26300-3 0  9992,2 53268  53.2182 318.1363 0001529  91.5754 268.5414 15.08850735112152,6917.848,95.437,540.77,538.655,0.0
53268.0,STARLINK-4109,PAYLOAD,2024-07-29 13:48:06,15.08856256,0.0001611,53.2177,314.2708,90.2224,269.8953,4.4702e-05,4.24e-06,0.0,0 STARLINK-4109,1 53268U 22086AC  24211.57507353  .00000424  00000-0  44702-4 0  9998,2 53268  53.2177 314.2708 0001611  90.2224 269.8953 15.08856256112107,6917.831,95.437,540.81,538.581,0.0
53268.0,STARLINK-4109,PAYLOAD,2024-07-29 16:58:52,15.08852045,0.0001493,53.2177,313.6767,91.7166,268.3997,6.8477e-05,8.02e-06,0.0,0 STARLINK-4109,1 53268U 22086AC  24211.70755426  .00000802  00000-0  68477-4 0  9994,2 53268  53.2177 313.6767 0001493  91.7166 268.3997 15.08852045112300,6917.844,95.437,540.741,538.676,0.0
53268.0,STARLINK-4109,PAYLOAD,2024-07-30 13:38:53,15.08846598,0.0001629,53.2174,309.8143,88.7387,271.3792,8.4412e-05,1.056e-05,0.0,0 STARLINK-4109,1 53268U 22086AC  24212.56867470  .00001056  00000-0  84412-4 0  9991,2 53268  53.2174 309.8143 0001629  88.7387 271.3792 15.08846598112251,6917.86,95.437,540.852,538.598,0.0
53268.0,STARLINK-4109,PAYLOAD,2024-07-31 13:29:41,15.08827311,0.000125,53.2163,305.3515,78.8535,281.2598,-0.0001481,-2.643e-05,0.0,0 STARLINK-4109,1 53268U 22086AC  24213.56228226 -.00002643  00000-0 -14810-3 0  9991,2 53268  53.2163 305.3515 0001250  78.8535 281.2598 15.08827311112401,6917.919,95.438,540.649,538.919,0.0
53268.0,STARLINK-4109,PAYLOAD,2024-08-01 11:45:04,15.08847796,0.0001565,53.2175,301.1955,103.6929,256.4238,0.00035309,5.337e-05,0.0,0 STARLINK-4109,1 53268U 22086AC  24214.48963930  .00005337  00000-0  35309-3 0  9998,2 53268  53.2175 301.1955 0001565 103.6929 256.4238 15.08847796112548,6917.857,95.437,540.804,538.639,0.0
53268.0,STARLINK-4109,PAYLOAD,2024-08-01 22:52:45,15.08868988,0.0001256,53.2166,299.1057,88.2271,271.8865,0.00040989,6.247e-05,0.0,0 STARLINK-4109,1 53268U 22086AC  24214.95330551  .00006247  00000-0  40989-3 0  9998,2 53268  53.2166 299.1057 0001256  88.2271 271.8865 15.08868988112613,6917.792,95.436,540.526,538.788,0.0
